[{"OBJECT_NAME":"STARLINK-4714","OBJECT_ID":"2022-107E","EPOCH":"2026-03-27T14:20:01.641408","MEAN_MOTION":15.08840569,"ECCENTRICITY":0.0001301,"INCLINATION":53.2171,"RA_OF_ASC_NODE":163.9875,"ARG_OF_PERICENTER":83.9163,"MEAN_ANOMALY":276.1977,"EPHEMERIS_TYPE":0,"CLASSIFICATION_TYPE":"U","NORAD_CAT_ID":53704,"ELEMENT_SET_NO":999,"REV_AT_EPOCH":19739,"BSTAR":2.7689e-5,"MEAN_MOTION_DOT":1.53e-6,"MEAN_MOTION_DDOT":0},{"OBJECT_NAME":"STARLINK-4717","OBJECT_ID":"2022-107F","EPOCH":"2026-03-27T17:25:29.481024","MEAN_MOTION":15.08843326,"ECCENTRICITY":0.0001315,"INCLINATION":53.216,"RA_OF_ASC_NODE":163.3689,"ARG_OF_PERICENTER":87.5041,"MEAN_ANOMALY":272.6102,"EPHEMERIS_TYPE":0,"CLASSIFICATION_TYPE":"U","NORAD_CAT_ID":53705,"ELEMENT_SET_NO":999,"REV_AT_EPOCH":19757,"BSTAR":0.00012011,"MEAN_MOTION_DOT":1.624e-5,"MEAN_MOTION_DDOT":0},{"OBJECT_NAME":"STARLINK-4716","OBJECT_ID":"2022-107G","EPOCH":"2026-03-27T12:18:06.455808","MEAN_MOTION":15.08838402,"ECCENTRICITY":0.0001197,"INCLINATION":53.2176,"RA_OF_ASC_NODE":164.1717,"ARG_OF_PERICENTER":86.2283,"MEAN_ANOMALY":273.8846,"EPHEMERIS_TYPE":0,"CLASSIFICATION_TYPE":"U","NORAD_CAT_ID":53706,"ELEMENT_SET_NO":999,"REV_AT_EPOCH":19754,"BSTAR":2.5916e-6,"MEAN_MOTION_DOT":-2.47e-6,"MEAN_MOTION_DDOT":0},{"OBJECT_NAME":"STARLINK-4667","OBJECT_ID":"2022-107H","EPOCH":"2026-03-27T10:31:27.264864","MEAN_MOTION":15.08837504,"ECCENTRICITY":0.0001342,"INCLINATION":53.2155,"RA_OF_ASC_NODE":149.4573,"ARG_OF_PERICENTER":94.9342,"MEAN_ANOMALY":265.1804,"EPHEMERIS_TYPE":0,"CLASSIFICATION_TYPE":"U","NORAD_CAT_ID":53707,"ELEMENT_SET_NO":999,"REV_AT_EPOCH":19774,"BSTAR":2.3432e-5,"MEAN_MOTION_DOT":8.5e-7,"MEAN_MOTION_DDOT":0},{"OBJECT_NAME":"STARLINK-4694","OBJECT_ID":"2022-107J","EPOCH":"2026-03-27T13:21:00.426816","MEAN_MOTION":15.08836341,"ECCENTRICITY":0.0001081,"INCLINATION":53.2163,"RA_OF_ASC_NODE":148.7796,"ARG_OF_PERICENTER":81.7387,"MEAN_ANOMALY":278.3728,"EPHEMERIS_TYPE":0,"CLASSIFICATION_TYPE":"U","NORAD_CAT_ID":53708,"ELEMENT_SET_NO":999,"REV_AT_EPOCH":19776,"BSTAR":4.1596e-6,"MEAN_MOTION_DOT":-2.22e-6,"MEAN_MOTION_DDOT":0},{"OBJECT_NAME":"STARLINK-4685","OBJECT_ID":"2022-107K","EPOCH":"2026-03-27T14:37:48.650304","MEAN_MOTION":15.08845328,"ECCENTRICITY":0.0001218,"INCLINATION":53.2164,"RA_OF_ASC_NODE":168.3707,"ARG_OF_PERICENTER":88.2894,"MEAN_ANOMALY":271.8238,"EPHEMERIS_TYPE":0,"CLASSIFICATION_TYPE":"U","NORAD_CAT_ID":53709,"ELEMENT_SET_NO":999,"REV_AT_EPOCH":19718,"BSTAR":0.00011464,"MEAN_MOTION_DOT":1.537e-5,"MEAN_MOTION_DDOT":0},{"OBJECT_NAME":"STARLINK-4627","OBJECT_ID":"2022-107M","EPOCH":"2026-03-27T18:04:29.847936","MEAN_MOTION":15.08846044,"ECCENTRICITY":0.000127,"INCLINATION":53.2165,"RA_OF_ASC_NODE":167.8357,"ARG_OF_PERICENTER":86.9751,"MEAN_ANOMALY":273.1386,"EPHEMERIS_TYPE":0,"CLASSIFICATION_TYPE":"U","NORAD_CAT_ID":53711,"ELEMENT_SET_NO":999,"REV_AT_EPOCH":19720,"BSTAR":0.00011168,"MEAN_MOTION_DOT":1.49e-5,"MEAN_MOTION_DDOT":0},{"OBJECT_NAME":"STARLINK-4683","OBJECT_ID":"2022-107N","EPOCH":"2026-03-27T15:51:58.675392","MEAN_MOTION":15.08834779,"ECCENTRICITY":0.000137,"INCLINATION":53.2171,"RA_OF_ASC_NODE":167.9903,"ARG_OF_PERICENTER":92.7531,"MEAN_ANOMALY":267.3618,"EPHEMERIS_TYPE":0,"CLASSIFICATION_TYPE":"U","NORAD_CAT_ID":53712,"ELEMENT_SET_NO":999,"REV_AT_EPOCH":19721,"BSTAR":1.53e-5,"MEAN_MOTION_DOT":-4.4e-7,"MEAN_MOTION_DDOT":0},{"OBJECT_NAME":"STARLINK-4686","OBJECT_ID":"2022-107R","EPOCH":"2026-03-27T14:45:04.798368","MEAN_MOTION":15.08852756,"ECCENTRICITY":0.0001388,"INCLINATION":53.2172,"RA_OF_ASC_NODE":173.3698,"ARG_OF_PERICENTER":90.4026,"MEAN_ANOMALY":269.7125,"EPHEMERIS_TYPE":0,"CLASSIFICATION_TYPE":"U","NORAD_CAT_ID":53715,"ELEMENT_SET_NO":999,"REV_AT_EPOCH":19712,"BSTAR":0.00012216,"MEAN_MOTION_DOT":1.657e-5,"MEAN_MOTION_DDOT":0},{"OBJECT_NAME":"STARLINK-4699","OBJECT_ID":"2022-107S","EPOCH":"2026-03-27T16:15:10.826496","MEAN_MOTION":15.08841617,"ECCENTRICITY":0.0001338,"INCLINATION":53.2156,"RA_OF_ASC_NODE":173.049,"ARG_OF_PERICENTER":88.2744,"MEAN_ANOMALY":271.8401,"EPHEMERIS_TYPE":0,"CLASSIFICATION_TYPE":"U","NORAD_CAT_ID":53716,"ELEMENT_SET_NO":999,"REV_AT_EPOCH":19712,"BSTAR":6.3275e-5,"MEAN_MOTION_DOT":7.19e-6,"MEAN_MOTION_DDOT":0},{"OBJECT_NAME":"STARLINK-4695","OBJECT_ID":"2022-107U","EPOCH":"2026-03-27T12:49:59.819232","MEAN_MOTION":15.08838244,"ECCENTRICITY":0.0001108,"INCLINATION":53.2169,"RA_OF_ASC_NODE":174.2746,"ARG_OF_PERICENTER":87.5542,"MEAN_ANOMALY":272.5577,"EPHEMERIS_TYPE":0,"CLASSIFICATION_TYPE":"U","NORAD_CAT_ID":53718,"ELEMENT_SET_NO":999,"REV_AT_EPOCH":19709,"BSTAR":7.1604e-5,"MEAN_MOTION_DOT":8.52e-6,"MEAN_MOTION_DDOT":0},{"OBJECT_NAME":"STARLINK-4644","OBJECT_ID":"2022-107V","EPOCH":"2026-03-27T20:49:23.460096","MEAN_MOTION":15.08870445,"ECCENTRICITY":0.0001143,"INCLINATION":53.2167,"RA_OF_ASC_NODE":142.1409,"ARG_OF_PERICENTER":94.9557,"MEAN_ANOMALY":265.1566,"EPHEMERIS_TYPE":0,"CLASSIFICATION_TYPE":"U","NORAD_CAT_ID":53719,"ELEMENT_SET_NO":999,"REV_AT_EPOCH":19758,"BSTAR":-0.00030865,"MEAN_MOTION_DOT":-5.201e-5,"MEAN_MOTION_DDOT":0},{"OBJECT_NAME":"STARLINK-4642","OBJECT_ID":"2022-107W","EPOCH":"2026-03-27T14:50:24.734976","MEAN_MOTION":15.0884006,"ECCENTRICITY":0.0001378,"INCLINATION":53.2185,"RA_OF_ASC_NODE":173.3942,"ARG_OF_PERICENTER":93.453,"MEAN_ANOMALY":266.6619,"EPHEMERIS_TYPE":0,"CLASSIFICATION_TYPE":"U","NORAD_CAT_ID":53720,"ELEMENT_SET_NO":999,"REV_AT_EPOCH":19712,"BSTAR":3.4189e-5,"MEAN_MOTION_DOT":2.56e-6,"MEAN_MOTION_DDOT":0},{"OBJECT_NAME":"STARLINK-4707","OBJECT_ID":"2022-107X","EPOCH":"2026-03-27T15:01:00.975936","MEAN_MOTION":15.0884219,"ECCENTRICITY":0.000142,"INCLINATION":53.2159,"RA_OF_ASC_NODE":173.4399,"ARG_OF_PERICENTER":86.6964,"MEAN_ANOMALY":273.419,"EPHEMERIS_TYPE":0,"CLASSIFICATION_TYPE":"U","NORAD_CAT_ID":53721,"ELEMENT_SET_NO":999,"REV_AT_EPOCH":19712,"BSTAR":6.3928e-5,"MEAN_MOTION_DOT":7.3e-6,"MEAN_MOTION_DDOT":0},{"OBJECT_NAME":"STARLINK-4700","OBJECT_ID":"2022-107Y","EPOCH":"2026-03-27T18:22:23.463840","MEAN_MOTION":15.0884639,"ECCENTRICITY":0.0001239,"INCLINATION":53.2164,"RA_OF_ASC_NODE":172.8859,"ARG_OF_PERICENTER":86.0296,"MEAN_ANOMALY":274.0838,"EPHEMERIS_TYPE":0,"CLASSIFICATION_TYPE":"U","NORAD_CAT_ID":53722,"ELEMENT_SET_NO":999,"REV_AT_EPOCH":19713,"BSTAR":0.00013778,"MEAN_MOTION_DOT":1.906e-5,"MEAN_MOTION_DDOT":0},{"OBJECT_NAME":"STARLINK-4705","OBJECT_ID":"2022-107Z","EPOCH":"2026-03-27T12:59:05.908704","MEAN_MOTION":15.08842271,"ECCENTRICITY":0.0001122,"INCLINATION":53.2166,"RA_OF_ASC_NODE":173.6278,"ARG_OF_PERICENTER":84.0882,"MEAN_ANOMALY":276.0238,"EPHEMERIS_TYPE":0,"CLASSIFICATION_TYPE":"U","NORAD_CAT_ID":53723,"ELEMENT_SET_NO":999,"REV_AT_EPOCH":19725,"BSTAR":0.00015058,"MEAN_MOTION_DOT":2.11e-5,"MEAN_MOTION_DDOT":0},{"OBJECT_NAME":"STARLINK-4663","OBJECT_ID":"2022-107AA","EPOCH":"2026-03-27T14:55:43.061952","MEAN_MOTION":15.08850169,"ECCENTRICITY":0.000134,"INCLINATION":53.2175,"RA_OF_ASC_NODE":173.4174,"ARG_OF_PERICENTER":81.9023,"MEAN_ANOMALY":278.2121,"EPHEMERIS_TYPE":0,"CLASSIFICATION_TYPE":"U","NORAD_CAT_ID":53724,"ELEMENT_SET_NO":999,"REV_AT_EPOCH":19712,"BSTAR":6.611e-5,"MEAN_MOTION_DOT":7.65e-6,"MEAN_MOTION_DDOT":0}]
