STARLINK-4714           
1 53704U 22107E   26086.59724122  .00000153  00000+0  27689-4 0  9999
2 53704  53.2171 163.9875 0001301  83.9163 276.1977 15.08840569197398
STARLINK-4717           
1 53705U 22107F   26086.72603566  .00001624  00000+0  12011-3 0  9999
2 53705  53.2160 163.3689 0001315  87.5041 272.6102 15.08843326197579
STARLINK-4716           
1 53706U 22107G   26086.51257472 -.00000247  00000+0  25916-5 0  9999
2 53706  53.2176 164.1717 0001197  86.2283 273.8846 15.08838402197544
STARLINK-4667           
1 53707U 22107H   26086.43851001  .00000085  00000+0  23432-4 0  9998
2 53707  53.2155 149.4573 0001342  94.9342 265.1804 15.08837504197744
STARLINK-4694           
1 53708U 22107J   26086.55625494 -.00000222  00000+0  41596-5 0  9993
2 53708  53.2163 148.7796 0001081  81.7387 278.3728 15.08836341197767
STARLINK-4685           
1 53709U 22107K   26086.60959086  .00001537  00000+0  11464-3 0  9995
2 53709  53.2164 168.3707 0001218  88.2894 271.8238 15.08845328197181
STARLINK-4627           
1 53711U 22107M   26086.75312324  .00001490  00000+0  11168-3 0  9991
2 53711  53.2165 167.8357 0001270  86.9751 273.1386 15.08846044197203
STARLINK-4683           
1 53712U 22107N   26086.66109578 -.00000044  00000+0  15300-4 0  9995
2 53712  53.2171 167.9903 0001370  92.7531 267.3618 15.08834779197217
STARLINK-4686           
1 53715U 22107R   26086.61463887  .00001657  00000+0  12216-3 0  9991
2 53715  53.2172 173.3698 0001388  90.4026 269.7125 15.08852756197120
STARLINK-4699           
1 53716U 22107S   26086.67720864  .00000719  00000+0  63275-4 0  9999
2 53716  53.2156 173.0490 0001338  88.2744 271.8401 15.08841617197122
STARLINK-4695           
1 53718U 22107U   26086.53472013  .00000852  00000+0  71604-4 0  9999
2 53718  53.2169 174.2746 0001108  87.5542 272.5577 15.08838244197098
STARLINK-4644           
1 53719U 22107V   26086.86763264 -.00005201  00000+0 -30865-3 0  9995
2 53719  53.2167 142.1409 0001143  94.9557 265.1566 15.08870445197583
STARLINK-4642           
1 53720U 22107W   26086.61834184  .00000256  00000+0  34189-4 0  9997
2 53720  53.2185 173.3942 0001378  93.4530 266.6619 15.08840060197123
STARLINK-4707           
1 53721U 22107X   26086.62570574  .00000730  00000+0  63928-4 0  9999
2 53721  53.2159 173.4399 0001420  86.6964 273.4190 15.08842190197121
STARLINK-4700           
1 53722U 22107Y   26086.76554935  .00001906  00000+0  13778-3 0  9991
2 53722  53.2164 172.8859 0001239  86.0296 274.0838 15.08846390197135
STARLINK-4705           
1 53723U 22107Z   26086.54104061  .00002110  00000+0  15058-3 0  9990
2 53723  53.2166 173.6278 0001122  84.0882 276.0238 15.08842271197255
STARLINK-4663           
1 53724U 22107AA  26086.62202618  .00000765  00000+0  66110-4 0  9997
2 53724  53.2175 173.4174 0001340  81.9023 278.2121 15.08850169197120
